{"type": "FeatureCollection", "features": [ {"type": "Feature", "properties": {"norad_id": 36647, "name": "FENGYUN 1C DEB", "group": "fengyun-1c-debris", "lat": -69.47067057016554, "lon": 138.04191434967456, "alt_km": 799.468996362185, "timestamp": "2025-12-03T13:52:09.850393+00:00", "meta": {"OBJECT_NAME": "FENGYUN 1C DEB", "OBJECT_ID": "1999-025DXR", "EPOCH": "2025-12-03T03:49:03.801792", "MEAN_MOTION": 13.88714349, "ECCENTRICITY": 0.02388104, "INCLINATION": 96.1218, "RA_OF_ASC_NODE": 121.1119, "ARG_OF_PERICENTER": 327.8812, "MEAN_ANOMALY": 30.7989, "EPHEMERIS_TYPE": 0, "CLASSIFICATION_TYPE": "U", "NORAD_CAT_ID": 36647, "ELEMENT_SET_NO": 999, "REV_AT_EPOCH": 30279, "BSTAR": 0.0026805996, "MEAN_MOTION_DOT": 4.035e-05, "MEAN_MOTION_DDOT": 0}, "tle": {"line1": "1 36647U 99025DXR 25337.15907178  .00004035  00000+0  26806-2 0  9994", "line2": "2 36647  96.1218 121.1119 0238810 327.8812  30.7989 13.88714349302799"}}, "geometry": {"type": "Point", "coordinates": [138.04191434967456, -69.47067057016554]}}, {"type": "Feature", "properties": {"norad_id": 36652, "name": "FENGYUN 1C DEB", "group": "fengyun-1c-debris", "lat": 60.599042602263296, "lon": 43.38550176087408, "alt_km": 782.7753868225445, "timestamp": "2025-12-03T13:52:09.850404+00:00", "meta": {"OBJECT_NAME": "FENGYUN 1C DEB", "OBJECT_ID": "1999-025DXW", "EPOCH": "2025-12-02T12:15:51.315840", "MEAN_MOTION": 14.22693053, "ECCENTRICITY": 0.00508837, "INCLINATION": 98.943, "RA_OF_ASC_NODE": 58.53, "ARG_OF_PERICENTER": 23.5446, "MEAN_ANOMALY": 336.8045, "EPHEMERIS_TYPE": 0, "CLASSIFICATION_TYPE": "U", "NORAD_CAT_ID": 36652, "ELEMENT_SET_NO": 999, "REV_AT_EPOCH": 64179, "BSTAR": 0.002092033, "MEAN_MOTION_DOT": 4.703e-05, "MEAN_MOTION_DDOT": 0}, "tle": {"line1": "1 36652U 99025DXW 25336.51101060  .00004703  00000+0  20920-2 0  9998", "line2": "2 36652  98.9430  58.5300 0050883  23.5446 336.8045 14.22693053641797"}}, "geometry": {"type": "Point", "coordinates": [43.38550176087408, 60.599042602263296]}}, {"type": "Feature", "properties": {"norad_id": 36657, "name": "FENGYUN 1C DEB", "group": "fengyun-1c-debris", "lat": -78.83036973972868, "lon": -175.6874902332213, "alt_km": 757.920405015785, "timestamp": "2025-12-03T13:52:09.850416+00:00", "meta": {"OBJECT_NAME": "FENGYUN 1C DEB", "OBJECT_ID": "1999-025DYB", "EPOCH": "2025-12-02T08:45:37.134432", "MEAN_MOTION": 14.65384436, "ECCENTRICITY": 0.01060994, "INCLINATION": 99.4117, "RA_OF_ASC_NODE": 125.7813, "ARG_OF_PERICENTER": 98.4012, "MEAN_ANOMALY": 262.9231, "EPHEMERIS_TYPE": 0, "CLASSIFICATION_TYPE": "U", "NORAD_CAT_ID": 36657, "ELEMENT_SET_NO": 999, "REV_AT_EPOCH": 66104, "BSTAR": 0.00095765855, "MEAN_MOTION_DOT": 5.561e-05, "MEAN_MOTION_DDOT": 0}, "tle": {"line1": "1 36657U 99025DYB 25336.36501313  .00005561  00000+0  95766-3 0  9995", "line2": "2 36657  99.4117 125.7813 0106099  98.4012 262.9231 14.65384436661042"}}, "geometry": {"type": "Point", "coordinates": [-175.6874902332213, -78.83036973972868]}}, {"type": "Feature", "properties": {"norad_id": 36659, "name": "FENGYUN 1C DEB", "group": "fengyun-1c-debris", "lat": -40.0392091189047, "lon": -11.036570769241704, "alt_km": 1019.4835661441821, "timestamp": "2025-12-03T13:52:09.850427+00:00", "meta": {"OBJECT_NAME": "FENGYUN 1C DEB", "OBJECT_ID": "1999-025DYD", "EPOCH": "2025-11-30T06:26:58.096608", "MEAN_MOTION": 13.87343928, "ECCENTRICITY": 0.01359777, "INCLINATION": 99.8542, "RA_OF_ASC_NODE": 337.0781, "ARG_OF_PERICENTER": 107.5886, "MEAN_ANOMALY": 254.0174, "EPHEMERIS_TYPE": 0, "CLASSIFICATION_TYPE": "U", "NORAD_CAT_ID": 36659, "ELEMENT_SET_NO": 999, "REV_AT_EPOCH": 60252, "BSTAR": 0.00069391445, "MEAN_MOTION_DOT": 8.31e-06, "MEAN_MOTION_DDOT": 0}, "tle": {"line1": "1 36659U 99025DYD 25334.26872797  .00000831  00000+0  69391-3 0  9991", "line2": "2 36659  99.8542 337.0781 0135977 107.5886 254.0174 13.87343928602520"}}, "geometry": {"type": "Point", "coordinates": [-11.036570769241704, -40.0392091189047]}}, {"type": "Feature", "properties": {"norad_id": 36664, "name": "FENGYUN 1C DEB", "group": "fengyun-1c-debris", "lat": -39.46900865571698, "lon": 9.625876085481563, "alt_km": 959.8625341194847, "timestamp": "2025-12-03T13:52:09.850437+00:00", "meta": {"OBJECT_NAME": "FENGYUN 1C DEB", "OBJECT_ID": "1999-025DYJ", "EPOCH": "2025-12-02T07:34:44.232672", "MEAN_MOTION": 14.17949443, "ECCENTRICITY": 0.01733945, "INCLINATION": 98.6054, "RA_OF_ASC_NODE": 1.2392, "ARG_OF_PERICENTER": 129.5773, "MEAN_ANOMALY": 232.0864, "EPHEMERIS_TYPE": 0, "CLASSIFICATION_TYPE": "U", "NORAD_CAT_ID": 36664, "ELEMENT_SET_NO": 999, "REV_AT_EPOCH": 63603, "BSTAR": 0.00012407521, "MEAN_MOTION_DOT": 2.53e-06, "MEAN_MOTION_DDOT": 0}, "tle": {"line1": "1 36664U 99025DYJ 25336.31578973  .00000253  00000+0  12408-3 0  9999", "line2": "2 36664  98.6054   1.2392 0173394 129.5773 232.0864 14.17949443636036"}}, "geometry": {"type": "Point", "coordinates": [9.625876085481563, -39.46900865571698]}}, {"type": "Feature", "properties": {"norad_id": 36668, "name": "FENGYUN 1C DEB", "group": "fengyun-1c-debris", "lat": 32.87024173174124, "lon": -17.349074511646535, "alt_km": 867.7051915975362, "timestamp": "2025-12-03T13:52:09.850447+00:00", "meta": {"OBJECT_NAME": "FENGYUN 1C DEB", "OBJECT_ID": "1999-025DYN", "EPOCH": "2025-12-02T19:02:55.094208", "MEAN_MOTION": 14.15355053, "ECCENTRICITY": 0.00511066, "INCLINATION": 98.6098, "RA_OF_ASC_NODE": 347.5122, "ARG_OF_PERICENTER": 254.5059, "MEAN_ANOMALY": 105.0468, "EPHEMERIS_TYPE": 0, "CLASSIFICATION_TYPE": "U", "NORAD_CAT_ID": 36668, "ELEMENT_SET_NO": 999, "REV_AT_EPOCH": 57277, "BSTAR": 0.00077081023, "MEAN_MOTION_DOT": 1.478e-05, "MEAN_MOTION_DDOT": 0}, "tle": {"line1": "1 36668U 99025DYN 25336.79369322  .00001478  00000+0  77081-3 0  9999", "line2": "2 36668  98.6098 347.5122 0051106 254.5059 105.0468 14.15355053572772"}}, "geometry": {"type": "Point", "coordinates": [-17.349074511646535, 32.87024173174124]}}, {"type": "Feature", "properties": {"norad_id": 36678, "name": "FENGYUN 1C DEB", "group": "fengyun-1c-debris", "lat": 81.56617570302622, "lon": -140.20960544627084, "alt_km": 721.3992317142411, "timestamp": "2025-12-03T13:52:09.850457+00:00", "meta": {"OBJECT_NAME": "FENGYUN 1C DEB", "OBJECT_ID": "1999-025DYY", "EPOCH": "2025-11-26T04:26:16.761408", "MEAN_MOTION": 14.37944691, "ECCENTRICITY": 0.01523469, "INCLINATION": 98.2901, "RA_OF_ASC_NODE": 313.1233, "ARG_OF_PERICENTER": 42.409, "MEAN_ANOMALY": 318.8754, "EPHEMERIS_TYPE": 0, "CLASSIFICATION_TYPE": "U", "NORAD_CAT_ID": 36678, "ELEMENT_SET_NO": 999, "REV_AT_EPOCH": 64751, "BSTAR": 0.00045851479, "MEAN_MOTION_DOT": 1.539e-05, "MEAN_MOTION_DDOT": 0}, "tle": {"line1": "1 36678U 99025DYY 25330.18491622  .00001539  00000+0  45851-3 0  9994", "line2": "2 36678  98.2901 313.1233 0152346  42.4090 318.8754 14.37944691647514"}}, "geometry": {"type": "Point", "coordinates": [-140.20960544627084, 81.56617570302622]}}, {"type": "Feature", "properties": {"norad_id": 36679, "name": "FENGYUN 1C DEB", "group": "fengyun-1c-debris", "lat": -74.98217296268649, "lon": 9.381024673263324, "alt_km": 944.8929801735594, "timestamp": "2025-12-03T13:52:09.850468+00:00", "meta": {"OBJECT_NAME": "FENGYUN 1C DEB", "OBJECT_ID": "1999-025DYZ", "EPOCH": "2025-12-02T05:45:43.795008", "MEAN_MOTION": 14.04609463, "ECCENTRICITY": 0.0085974, "INCLINATION": 98.8351, "RA_OF_ASC_NODE": 332.6471, "ARG_OF_PERICENTER": 122.6149, "MEAN_ANOMALY": 238.3353, "EPHEMERIS_TYPE": 0, "CLASSIFICATION_TYPE": "U", "NORAD_CAT_ID": 36679, "ELEMENT_SET_NO": 999, "REV_AT_EPOCH": 24401, "BSTAR": 0.00048108, "MEAN_MOTION_DOT": 7.53e-06, "MEAN_MOTION_DDOT": 0}, "tle": {"line1": "1 36679U 99025DYZ 25336.24009022  .00000753  00000+0  48108-3 0  9992", "line2": "2 36679  98.8351 332.6471 0085974 122.6149 238.3353 14.04609463244016"}}, "geometry": {"type": "Point", "coordinates": [9.381024673263324, -74.98217296268649]}}, {"type": "Feature", "properties": {"norad_id": 36680, "name": "FENGYUN 1C DEB", "group": "fengyun-1c-debris", "lat": 32.71334508694586, "lon": 155.56954896588996, "alt_km": 912.6718725222427, "timestamp": "2025-12-03T13:52:09.850478+00:00", "meta": {"OBJECT_NAME": "FENGYUN 1C DEB", "OBJECT_ID": "1999-025DZA", "EPOCH": "2025-12-01T11:07:14.342016", "MEAN_MOTION": 14.1858241, "ECCENTRICITY": 0.01886112, "INCLINATION": 98.5478, "RA_OF_ASC_NODE": 327.9868, "ARG_OF_PERICENTER": 282.1822, "MEAN_ANOMALY": 233.6728, "EPHEMERIS_TYPE": 0, "CLASSIFICATION_TYPE": "U", "NORAD_CAT_ID": 36680, "ELEMENT_SET_NO": 999, "REV_AT_EPOCH": 64137, "BSTAR": 0.00071360344, "MEAN_MOTION_DOT": 1.717e-05, "MEAN_MOTION_DDOT": 0}, "tle": {"line1": "1 36680U 99025DZA 25335.46336044  .00001717  00000+0  71360-3 0  9991", "line2": "2 36680  98.5478 327.9868 0188611 282.1822 233.6728 14.18582410641375"}}, "geometry": {"type": "Point", "coordinates": [155.56954896588996, 32.71334508694586]}}, {"type": "Feature", "properties": {"norad_id": 36681, "name": "FENGYUN 1C DEB", "group": "fengyun-1c-debris", "lat": -79.41292391225831, "lon": 101.52698831275747, "alt_km": 877.8415938886528, "timestamp": "2025-12-03T13:52:09.850488+00:00", "meta": {"OBJECT_NAME": "FENGYUN 1C DEB", "OBJECT_ID": "1999-025DZB", "EPOCH": "2025-11-19T06:21:10.816992", "MEAN_MOTION": 14.10187867, "ECCENTRICITY": 0.00454, "INCLINATION": 98.6964, "RA_OF_ASC_NODE": 322.6587, "ARG_OF_PERICENTER": 56.031, "MEAN_ANOMALY": 304.5163, "EPHEMERIS_TYPE": 0, "CLASSIFICATION_TYPE": "U", "NORAD_CAT_ID": 36681, "ELEMENT_SET_NO": 999, "REV_AT_EPOCH": 72427, "BSTAR": 0.00080116575, "MEAN_MOTION_DOT": 1.39e-05, "MEAN_MOTION_DDOT": 0}, "tle": {"line1": "1 36681U 99025DZB 25323.26470853  .00001390  00000+0  80117-3 0  9991", "line2": "2 36681  98.6964 322.6587 0045400  56.0310 304.5163 14.10187867724276"}}, "geometry": {"type": "Point", "coordinates": [101.52698831275747, -79.41292391225831]}}]}